{
    "links": {
        "self": "http://www.neowsapp.com/rest/v1/neo/3551406?api_key=iIulBulltgU6a56xZRHN4H3l9WmuAYTsLGpBGhQ2"
    },
    "id": "3551406",
    "neo_reference_id": "3551406",
    "name": "(2010 VD139)",
    "designation": "2010 VD139",
    "nasa_jpl_url": "http://ssd.jpl.nasa.gov/sbdb.cgi?sstr=3551406",
    "absolute_magnitude_h": 26.2,
    "estimated_diameter": {
        "kilometers": {
            "estimated_diameter_min": 0.0152951935,
            "estimated_diameter_max": 0.0342010925
        },
        "meters": {
            "estimated_diameter_min": 15.2951935344,
            "estimated_diameter_max": 34.201092472
        },
        "miles": {
            "estimated_diameter_min": 0.0095039897,
            "estimated_diameter_max": 0.021251567
        },
        "feet": {
            "estimated_diameter_min": 50.1810827555,
            "estimated_diameter_max": 112.2083122258
        }
    },
    "is_potentially_hazardous_asteroid": false,
    "close_approach_data": [
        {
            "close_approach_date": "2008-03-09",
            "close_approach_date_full": "2008-Mar-09 05:33",
            "epoch_date_close_approach": 1205040780000,
            "relative_velocity": {
                "kilometers_per_second": "13.2930602968",
                "kilometers_per_hour": "47855.0170684775",
                "miles_per_hour": "29735.2465779104"
            },
            "miss_distance": {
                "astronomical": "0.1234042382",
                "lunar": "48.0042486598",
                "kilometers": "18461011.183692634",
                "miles": "11471140.4256969892"
            },
            "orbiting_body": "Venus"
        },
        {
            "close_approach_date": "2010-11-23",
            "close_approach_date_full": "2010-Nov-23 18:06",
            "epoch_date_close_approach": 1290535560000,
            "relative_velocity": {
                "kilometers_per_second": "5.1444568575",
                "kilometers_per_hour": "18520.0446870311",
                "miles_per_hour": "11507.6355445611"
            },
            "miss_distance": {
                "astronomical": "0.0286836904",
                "lunar": "11.1579555656",
                "kilometers": "4291018.987579448",
                "miles": "2666315.5601864624"
            },
            "orbiting_body": "Earth"
        },
        {
            "close_approach_date": "2013-10-02",
            "close_approach_date_full": "2013-Oct-02 11:26",
            "epoch_date_close_approach": 1380713160000,
            "relative_velocity": {
                "kilometers_per_second": "20.2007231447",
                "kilometers_per_hour": "72722.6033210024",
                "miles_per_hour": "45186.9976024307"
            },
            "miss_distance": {
                "astronomical": "0.460530768",
                "lunar": "179.146468752",
                "kilometers": "68894421.96226416",
                "miles": "42809008.727239008"
            },
            "orbiting_body": "Earth"
        },
        {
            "close_approach_date": "2016-07-17",
            "close_approach_date_full": "2016-Jul-17 04:58",
            "epoch_date_close_approach": 1468731480000,
            "relative_velocity": {
                "kilometers_per_second": "11.0131411389",
                "kilometers_per_hour": "39647.3081000771",
                "miles_per_hour": "24635.2954136285"
            },
            "miss_distance": {
                "astronomical": "0.074956257",
                "lunar": "29.157983973",
                "kilometers": "11213296.39037259",
                "miles": "6967619.284178142"
            },
            "orbiting_body": "Venus"
        }
    ],
    "orbital_data": {
        "orbit_id": "9",
        "orbit_determination_date": "2017-04-06 08:55:44",
        "first_observation_date": "2010-11-12",
        "last_observation_date": "2010-11-24",
        "data_arc_in_days": 12,
        "observations_used": 29,
        "orbit_uncertainty": "8",
        "minimum_orbit_intersection": ".0128002",
        "jupiter_tisserand_invariant": "6.943",
        "epoch_osculation": "2455515.5",
        "eccentricity": ".238941477843878",
        "semi_major_axis": ".8443397984925888",
        "inclination": "3.838671135507667",
        "ascending_node_longitude": "57.42018206337261",
        "orbital_period": "283.3833419380278",
        "perihelion_distance": ".6425919992383675",
        "perihelion_argument": "155.6791225557111",
        "aphelion_distance": "1.04608759774681",
        "perihelion_time": "2455632.888463476448",
        "mean_anomaly": "210.8739202434738",
        "mean_motion": "1.270364014828815",
        "equinox": "J2000",
        "orbit_class": {
            "orbit_class_type": "ATE",
            "orbit_class_description": "Near-Earth asteroid orbits similar to that of 2062 Aten",
            "orbit_class_range": "a (semi-major axis) < 1.0 AU; q (perihelion) > 0.983 AU"
        }
    },
    "is_sentry_object": false
}